NORAD_CAT_ID,OBJECT_NAME,OBJECT_TYPE,EPOCH,MEAN_MOTION,ECCENTRICITY,INCLINATION,RA_OF_ASC_NODE,ARG_OF_PERICENTER,MEAN_ANOMALY,BSTAR,MEAN_MOTION_DOT,MEAN_MOTION_DDOT,TLE_LINE0,TLE_LINE1,TLE_LINE2,SEMIMAJOR_AXIS,PERIOD,APOGEE,PERIGEE,DECAYED
52088.0,STARLINK-3537,PAYLOAD,2022-06-29 14:00:01,15.76774881,0.0001161,53.2083,349.8438,123.3908,122.585,4.7731e-06,1.28e-06,0.0,0 STARLINK-3537,1 52088U 22029A   22180.58334491  .00000128  00000-0  47731-5 0  9996,2 52088  53.2083 349.8438 0001161 123.3908 122.5850 15.76774881  1301,6717.722,91.326,340.367,338.807,0.0
52088.0,STARLINK-3537,PAYLOAD,2022-06-29 22:00:00,15.7675492,0.0001105,53.2079,348.1868,107.4912,231.7263,6.846e-05,0.00010576,0.0,0 STARLINK-3537,1 52088U 22029A   22180.91667824  .00010576  00000-0  68460-4 0  9991,2 52088  53.2079 348.1868 0001105 107.4912 231.7263 15.76754920  1304,6717.779,91.327,340.386,338.902,0.0
52088.0,STARLINK-3537,PAYLOAD,2022-06-30 14:00:01,15.76771036,0.0001321,53.2082,344.8684,115.3417,50.2721,-0.00035171,-0.00057931,0.0,0 STARLINK-3537,1 52088U 22029A   22181.58334491 -.00057931  00000-0 -35171-3 0  9996,2 52088  53.2082 344.8684 0001321 115.3417  50.2721 15.76771036  1305,6717.733,91.326,340.486,338.711,0.0
52088.0,STARLINK-3537,PAYLOAD,2022-06-30 22:00:00,15.76697945,0.0001085,53.2081,343.2114,105.8605,152.9485,0.00011774,0.00018631,0.0,0 STARLINK-3537,1 52088U 22029A   22181.91667824  .00018631  00000-0  11774-3 0  9997,2 52088  53.2081 343.2114 0001085 105.8605 152.9485 15.76697945  1308,6717.941,91.33,340.535,339.077,0.0
52088.0,STARLINK-3537,PAYLOAD,2022-07-01 14:00:01,15.767446599999998,0.0001132,53.2087,339.8932,110.4518,334.6307,-6.8286e-05,-0.00011822,0.0,0 STARLINK-3537,1 52088U 22029A   22182.58334491 -.00011822  00000-0 -68286-4 0  9990,2 52088  53.2087 339.8932 0001132 110.4518 334.6307 15.76744660  1300,6717.808000000001,91.327,340.434,338.913,0.0
52088.0,STARLINK-3537,PAYLOAD,2022-07-01 22:00:00,15.76732644,0.0001104,53.2081,338.2361,97.7509,80.5292,-8.3102e-05,-0.00014233,0.0,0 STARLINK-3537,1 52088U 22029A   22182.91667824 -.00014233  00000-0 -83102-4 0  9999,2 52088  53.2081 338.2361 0001104  97.7509  80.5292 15.76732644  1308,6717.842,91.328,340.449,338.966,0.0
52088.0,STARLINK-3537,PAYLOAD,2022-07-02 14:00:01,15.76778958,0.0001042,53.2085,334.9181,109.7249,254.8797,-0.00062522,-0.00101981,0.0,0 STARLINK-3537,1 52088U 22029A   22183.58334491 -.00101981  00000-0 -62522-3 0  9993,2 52088  53.2085 334.9181 0001042 109.7249 254.8797 15.76778958  1305,6717.7109999999975,91.325,340.276,338.876,0.0
52088.0,STARLINK-3537,PAYLOAD,2022-07-02 22:00:00,15.76734046,7.859999999999999e-05,53.2083,333.2607,94.0008,3.8458,0.00058872,0.00096817,0.0,0 STARLINK-3537,1 52088U 22029A   22183.91667824  .00096817  00000-0  58872-3 0  9991,2 52088  53.2083 333.2607 0000786  94.0008   3.8458 15.76734046 18002,6717.8380000000025,91.328,340.231,339.175,0.0
52088.0,STARLINK-3537,PAYLOAD,2022-07-03 14:00:01,15.76781797,0.0001190999999999,53.2087,329.9427,95.7895,188.5012,-0.00078413,-0.00127377,0.0,0 STARLINK-3537,1 52088U 22029A   22184.58334491 -.00127377  00000-0 -78413-3 0  9997,2 52088  53.2087 329.9427 0001191  95.7895 188.5012 15.76781797 18104,6717.703,91.325,340.36800000000005,338.76800000000014,0.0
52088.0,STARLINK-3537,PAYLOAD,2022-07-03 22:00:00,15.76682401,0.0001232,53.2079,328.2852,86.4947,290.9564,-0.00053186,-0.00086638,0.0,0 STARLINK-3537,1 52088U 22029A   22184.91667824 -.00086638  00000-0 -53186-3 0  9997,2 52088  53.2079 328.2852 0001232  86.4947 290.9564 15.76682401  1306,6717.985,91.331,340.67800000000005,339.022,0.0
52088.0,STARLINK-3537,PAYLOAD,2022-07-04 14:00:01,15.76637101,0.0001315999999999,53.2083,324.9682,93.608,109.941,8.887600000000001e-05,0.00013856,0.0,0 STARLINK-3537,1 52088U 22029A   22185.58334491  .00013856  00000-0  88876-4 0  9997,2 52088  53.2083 324.9682 0001316  93.6080 109.9410 15.76637101 18265,6718.114000000001,91.334,340.86300000000006,339.095,0.0
52088.0,STARLINK-3537,PAYLOAD,2022-07-04 22:00:00,15.76675721,0.0001190999999999,53.2081,323.3106,82.6355,214.0047,0.00040068,0.00065269,0.0,0 STARLINK-3537,1 52088U 22029A   22185.91667824  .00065269  00000-0  40068-3 0  9998,2 52088  53.2081 323.3106 0001191  82.6355 214.0047 15.76675721  1302,6718.004,91.331,340.6690000000001,339.069,0.0
52088.0,STARLINK-3537,PAYLOAD,2022-07-05 14:00:01,15.76767203,0.0001228,53.2081,319.9934,84.9036,38.0125,-0.00017829,-0.0002978,0.0,0 STARLINK-3537,1 52088U 22029A   22186.58334491 -.00029780  00000-0 -17829-3 0  9992,2 52088  53.2081 319.9934 0001228  84.9036  38.0125 15.76767203 18423,6717.744000000002,91.326,340.434,338.784,0.0
52088.0,STARLINK-3537,PAYLOAD,2022-07-05 22:00:00,15.76746835,0.0001081,53.2074,318.3352,77.1599,138.9662,-0.00015652,-0.0002621,0.0,0 STARLINK-3537,1 52088U 22029A   22186.91667824 -.00026210  00000-0 -15652-3 0  9995,2 52088  53.2074 318.3352 0001081  77.1599 138.9662 15.76746835  1300,6717.802,91.327,340.39300000000014,338.941,0.0
52088.0,STARLINK-3537,PAYLOAD,2022-07-06 14:00:01,15.76730824,0.0001119,53.2078,315.0182,80.4841,321.9438,-0.00015762,-0.00026371,0.0,0 STARLINK-3537,1 52088U 22029A   22187.58334491 -.00026371  00000-0 -15762-3 0  9990,2 52088  53.2078 315.0182 0001119  80.4841 321.9438 15.76730824  1304,6717.847,91.328,340.464,338.961,0.0
52088.0,STARLINK-3537,PAYLOAD,2022-07-06 18:23:06,15.76731053,0.0001083,53.2078,314.1084,93.0083,267.1062,0.00010032,0.00015796,0.0,0 STARLINK-3537,1 52088U 22029A   22187.76605143  .00015796  00000-0  10032-3 0  9997,2 52088  53.2078 314.1084 0001083  93.0083 267.1062 15.76731053 18614,6717.847,91.328,340.439,338.9840000000001,0.0
52088.0,STARLINK-3537,PAYLOAD,2022-07-07 12:38:26,15.76721016,8.759999999999999e-05,53.2088,310.3266,35.4934,324.6145,9.7885e-05,0.00015389,0.0,0 STARLINK-3537,1 52088U 22029A   22188.52669020  .00015389  00000-0  97885-4 0  9996,2 52088  53.2088 310.3266 0000876  35.4934 324.6145 15.76721016 18731,6717.875,91.329,340.329,339.152,0.0
52088.0,STARLINK-3537,PAYLOAD,2022-07-07 22:00:00,15.76758147,0.0001109,53.2069,308.3841,65.7174,349.3626,-0.00032812,-0.00054081,0.0,0 STARLINK-3537,1 52088U 22029A   22188.91667824 -.00054081  00000-0 -32812-3 0  9991,2 52088  53.2069 308.3841 0001109  65.7174 349.3626 15.76758147  1306,6717.77,91.327,340.38,338.89,0.0
52088.0,STARLINK-3537,PAYLOAD,2022-07-08 08:24:59,15.76792282,0.0001038,53.2064,306.2227,69.3865,290.7268,0.00021465,0.00034716,0.0,0 STARLINK-3537,1 52088U 22029A   22189.35068392  .00034716  00000-0  21465-3 0  9998,2 52088  53.2064 306.2227 0001038  69.3865 290.7268 15.76792282 18862,6717.6730000000025,91.325,340.235,338.841,0.0
52088.0,STARLINK-3537,PAYLOAD,2022-07-08 14:00:01,15.76838091,0.0001099,53.2073,305.0669,59.7755,181.8183,6.8563e-06,4.72e-06,0.0,0 STARLINK-3537,1 52088U 22029A   22189.58334491  .00000472  00000-0  68563-5 0  9993,2 52088  53.2073 305.0669 0001099  59.7755 181.8183 15.76838091 18895,6717.543000000002,91.322,340.146,338.67,0.0
52088.0,STARLINK-3537,PAYLOAD,2022-07-08 22:00:01,15.76869381,0.0001132,53.2073,303.4078,54.76300000000001,280.1672,-0.00078968,-0.0012875,0.0,0 STARLINK-3537,1 52088U 22029A   22189.91668981 -.00128750  00000-0 -78968-3 0  9994,2 52088  53.2073 303.4078 0001132  54.7630 280.1672 15.76869381 18944,6717.454000000002,91.32,340.079,338.55800000000005,0.0
52088.0,STARLINK-3537,PAYLOAD,2022-07-09 04:00:00,15.76766884,0.0001197,53.2075,302.1624,68.8618,245.9565,-0.00080436,-0.00130513,0.0,0 STARLINK-3537,1 52088U 22029A   22190.16667824 -.00130513  00000-0 -80436-3 0  9991,2 52088  53.2075 302.1624 0001197  68.8618 245.9565 15.76766884 18980,6717.745,91.326,340.414,338.806,0.0
52088.0,STARLINK-3537,PAYLOAD,2022-07-09 14:00:01,15.76594572,0.000155,53.2072,300.0908,61.1422,100.1408,-0.00073185,-0.00118083,0.0,0 STARLINK-3537,1 52088U 22029A   22190.58334491 -.00118083  00000-0 -73185-3 0  9999,2 52088  53.2072 300.0908 0001550  61.1422 100.1408 15.76594572 19051,6718.234,91.336,341.141,339.05800000000005,0.0
52088.0,STARLINK-3537,PAYLOAD,2022-07-09 20:00:01,15.76518119,0.000168,53.2067,298.8474,62.0992,78.9111,0.00039155,0.00063308,0.0,0 STARLINK-3537,1 52088U 22029A   22190.83334491  .00063308  00000-0  39155-3 0  9993,2 52088  53.2067 298.8474 0001680  62.0992  78.9111 15.76518119 19093,6718.4519999999975,91.341,341.445,339.1880000000001,0.0
52088.0,STARLINK-3537,PAYLOAD,2022-07-10 14:00:01,15.76695461,0.0001341999999999,53.2072,295.1167,54.7129,25.491,0.00019703,0.00031663,0.0,0 STARLINK-3537,1 52088U 22029A   22191.58334491  .00031663  00000-0  19703-3 0  9992,2 52088  53.2072 295.1167 0001342  54.7129  25.4910 15.76695461 19217,6717.948,91.33,340.714,338.911,0.0
52088.0,STARLINK-3537,PAYLOAD,2022-07-10 22:00:00,15.76755292,0.0001334,53.2073,293.4575,50.6656,122.6891,7.5025e-05,0.00011655,0.0,0 STARLINK-3537,1 52088U 22029A   22191.91667824  .00011655  00000-0  75025-4 0  9997,2 52088  53.2073 293.4575 0001334  50.6656 122.6891 15.76755292 19265,6717.778,91.327,340.539,338.747,0.0
52088.0,STARLINK-3537,PAYLOAD,2022-07-11 06:00:00,15.76811638,0.000133,53.2075,291.7976,58.218,208.3599,7.891199999999999e-05,0.00012325,0.0,0 STARLINK-3537,1 52088U 22029A   22192.25001157  .00012325  00000-0  78912-4 0  9999,2 52088  53.2075 291.7976 0001330  58.2180 208.3599 15.76811638 19315,6717.618,91.324,340.376,338.589,0.0
52088.0,STARLINK-3537,PAYLOAD,2022-07-11 14:00:01,15.76785562,0.0001574,53.2072,290.1412,51.9777,307.844,-0.00048226,-0.00079051,0.0,0 STARLINK-3537,1 52088U 22029A   22192.58334491 -.00079051  00000-0 -48226-3 0  9990,2 52088  53.2072 290.1412 0001574  51.9777 307.8440 15.76785562 19363,6717.691999999999,91.325,340.6140000000001,338.5,0.0
52088.0,STARLINK-3537,PAYLOAD,2022-07-11 22:00:00,15.7677047,0.0001488,53.2067,288.4817,49.6168,43.4144,-0.00067243,-0.00109503,0.0,0 STARLINK-3537,1 52088U 22029A   22192.91667824 -.00109503  00000-0 -67243-3 0  9992,2 52088  53.2067 288.4817 0001488  49.6168  43.4144 15.76770470  1309,6717.735,91.326,340.599,338.6,0.0
